STRIX-1                 
1 53815U 22113A   26186.63554475  .00026181  00000+0  64216-3 0  9992
2 53815  97.4479 248.9974 0005028 156.7403 203.4072 15.40679649210280
STRIX-3                 
1 59224U 24047A   26186.61692495  .00010758  00000+0  50575-3 0  9999
2 59224  97.6633 162.5677 0013184   8.5217 351.6239 15.19699007127547
STRIX-4                 
1 60352U 24137A   26186.46501486  .00016379  00000+0  50711-3 0  9992
2 60352  43.0139 180.9778 0016057  62.6314 297.6172 15.33100379106822
STRIX-2                 
1 62406U 24248A   26186.64010973  .00007145  00000+0  45349-3 0  9995
2 62406  97.6292 142.1755 0013654 272.8767  87.0898 15.09118456 84370
STRIX-5                 
1 65971U 25229A   26186.35925193  .00004686  00000+0  33729-3 0  9998
2 65971  41.9263 186.6206 0036612 173.9243 186.2034 15.04547407 39712
STRIX-6                 
1 68291U 26056A   26186.24511787  .00005142  00000+0  42515-3 0  9994
2 68291  50.2820 264.4286 0016558 313.0640  46.8922 15.00296797 15989
STRIX-7                 
1 69177U 26112A   26186.20258364  .00007054  00000+0  55051-3 0  9999
2 69177  44.9069  97.8219 0023542 152.0319 208.1823 15.01555222  6588
STRIX-8                 
1 69701U 26146A   26186.12744110  .00008072  00000+0  58111-3 0  9990
2 69701  41.9893  68.8620 0008766 318.4582  41.5578 15.04372169  1264
