{"fetched_at":"2026-07-06T08:47:24.650Z","source":"https://celestrak.org/NORAD/elements/gp.php?NAME=STRIX&FORMAT=JSON","constellation":"synspective","records":[{"OBJECT_NAME":"STRIX-1","OBJECT_ID":"2022-113A","EPOCH":"2026-07-05T15:15:11.066400","CLASSIFICATION_TYPE":"U","MEAN_MOTION":15.40679649,"ECCENTRICITY":0.00050282,"INCLINATION":97.4479,"RA_OF_ASC_NODE":248.9974,"ARG_OF_PERICENTER":156.7403,"MEAN_ANOMALY":203.4072,"EPHEMERIS_TYPE":0,"NORAD_CAT_ID":53815,"ELEMENT_SET_NO":999,"REV_AT_EPOCH":21028,"BSTAR":0.00064215877,"MEAN_MOTION_DOT":0.00026181,"MEAN_MOTION_DDOT":0},{"OBJECT_NAME":"STRIX-3","OBJECT_ID":"2024-047A","EPOCH":"2026-07-05T14:48:22.315680","CLASSIFICATION_TYPE":"U","MEAN_MOTION":15.19699007,"ECCENTRICITY":0.0013184,"INCLINATION":97.6633,"RA_OF_ASC_NODE":162.5677,"ARG_OF_PERICENTER":8.5217,"MEAN_ANOMALY":351.6239,"EPHEMERIS_TYPE":0,"NORAD_CAT_ID":59224,"ELEMENT_SET_NO":999,"REV_AT_EPOCH":12754,"BSTAR":0.00050575086,"MEAN_MOTION_DOT":0.00010758,"MEAN_MOTION_DDOT":0},{"OBJECT_NAME":"STRIX-4","OBJECT_ID":"2024-137A","EPOCH":"2026-07-05T11:09:37.283904","CLASSIFICATION_TYPE":"U","MEAN_MOTION":15.33100379,"ECCENTRICITY":0.0016058,"INCLINATION":43.0139,"RA_OF_ASC_NODE":180.9778,"ARG_OF_PERICENTER":62.6314,"MEAN_ANOMALY":297.6172,"EPHEMERIS_TYPE":0,"NORAD_CAT_ID":60352,"ELEMENT_SET_NO":999,"REV_AT_EPOCH":10682,"BSTAR":0.00050711,"MEAN_MOTION_DOT":0.00016379,"MEAN_MOTION_DDOT":0},{"OBJECT_NAME":"STRIX-2","OBJECT_ID":"2024-248A","EPOCH":"2026-07-05T15:21:45.480672","CLASSIFICATION_TYPE":"U","MEAN_MOTION":15.09118456,"ECCENTRICITY":0.00136542,"INCLINATION":97.6292,"RA_OF_ASC_NODE":142.1755,"ARG_OF_PERICENTER":272.8767,"MEAN_ANOMALY":87.0898,"EPHEMERIS_TYPE":0,"NORAD_CAT_ID":62406,"ELEMENT_SET_NO":999,"REV_AT_EPOCH":8437,"BSTAR":0.00045349491,"MEAN_MOTION_DOT":0.00007145,"MEAN_MOTION_DDOT":0},{"OBJECT_NAME":"STRIX-5","OBJECT_ID":"2025-229A","EPOCH":"2026-07-05T08:37:19.365888","CLASSIFICATION_TYPE":"U","MEAN_MOTION":15.04547407,"ECCENTRICITY":0.0036612,"INCLINATION":41.9263,"RA_OF_ASC_NODE":186.6206,"ARG_OF_PERICENTER":173.9243,"MEAN_ANOMALY":186.2034,"EPHEMERIS_TYPE":0,"NORAD_CAT_ID":65971,"ELEMENT_SET_NO":999,"REV_AT_EPOCH":3971,"BSTAR":0.00033729,"MEAN_MOTION_DOT":0.00004686,"MEAN_MOTION_DDOT":0},{"OBJECT_NAME":"STRIX-6","OBJECT_ID":"2026-056A","EPOCH":"2026-07-05T05:52:58.183104","CLASSIFICATION_TYPE":"U","MEAN_MOTION":15.00296797,"ECCENTRICITY":0.0016559,"INCLINATION":50.282,"RA_OF_ASC_NODE":264.4286,"ARG_OF_PERICENTER":313.064,"MEAN_ANOMALY":46.8922,"EPHEMERIS_TYPE":0,"NORAD_CAT_ID":68291,"ELEMENT_SET_NO":999,"REV_AT_EPOCH":1598,"BSTAR":0.00042515,"MEAN_MOTION_DOT":0.00005142,"MEAN_MOTION_DDOT":0},{"OBJECT_NAME":"STRIX-7","OBJECT_ID":"2026-112A","EPOCH":"2026-07-05T04:51:43.225632","CLASSIFICATION_TYPE":"U","MEAN_MOTION":15.01555222,"ECCENTRICITY":0.0023542,"INCLINATION":44.9069,"RA_OF_ASC_NODE":97.8219,"ARG_OF_PERICENTER":152.0319,"MEAN_ANOMALY":208.1823,"EPHEMERIS_TYPE":0,"NORAD_CAT_ID":69177,"ELEMENT_SET_NO":999,"REV_AT_EPOCH":658,"BSTAR":0.00055051,"MEAN_MOTION_DOT":0.00007054,"MEAN_MOTION_DDOT":0},{"OBJECT_NAME":"STRIX-8","OBJECT_ID":"2026-146A","EPOCH":"2026-07-05T03:03:30.911040","CLASSIFICATION_TYPE":"U","MEAN_MOTION":15.04372169,"ECCENTRICITY":0.0008767,"INCLINATION":41.9893,"RA_OF_ASC_NODE":68.862,"ARG_OF_PERICENTER":318.4582,"MEAN_ANOMALY":41.5578,"EPHEMERIS_TYPE":0,"NORAD_CAT_ID":69701,"ELEMENT_SET_NO":999,"REV_AT_EPOCH":126,"BSTAR":0.00058111,"MEAN_MOTION_DOT":0.00008072,"MEAN_MOTION_DDOT":0}]}
